{
  "norad_id": 60063,
  "name": "STARLINK-11165 [DTC]",
  "history": [
    {
      "epoch": "2026-05-03T16:58:28.045920Z",
      "apogee_km": 360.4070484679896,
      "perigee_km": 359.1645755014597,
      "latitude_deg": -2.512147591175078e-05,
      "longitude_deg": 163.67103035284268,
      "height_km": 360.9103377229851,
      "semi_major_axis_km": 6737.922811984724,
      "eccentricity": 9.22e-05,
      "inclination_deg": 53.1597,
      "raan_deg": 279.895,
      "arg_perigee_deg": 109.816,
      "mean_anomaly_deg": 250.2957,
      "mean_motion_rev_day": 15.69689361
    }
  ]
}